{"type": "FeatureCollection", "features": [ {"type": "Feature", "properties": {"norad_id": 66470, "name": "STARLINK-35655", "group": "last-30-days", "lat": 23.68507821046903, "lon": 139.80801935634113, "alt_km": 412.90508968230006, "timestamp": "2025-12-05T18:53:12.096234+00:00", "meta": {"OBJECT_NAME": "STARLINK-35655", "OBJECT_ID": "2025-262Q", "EPOCH": "2025-12-05T06:00:02.000160", "MEAN_MOTION": 15.51200674, "ECCENTRICITY": 0.00010932, "INCLINATION": 43, "RA_OF_ASC_NODE": 114.8674, "ARG_OF_PERICENTER": 271.687, "MEAN_ANOMALY": 3.5446, "EPHEMERIS_TYPE": 0, "CLASSIFICATION_TYPE": "U", "NORAD_CAT_ID": 66470, "ELEMENT_SET_NO": 999, "REV_AT_EPOCH": 443, "BSTAR": -0.016537861, "MEAN_MOTION_DOT": -0.0091299, "MEAN_MOTION_DDOT": 0}, "tle": {"line1": "1 66470U 25262Q   25339.25002315 -.00912990  00000+0 -16538-1 0  9995", "line2": "2 66470  43.0000 114.8674 0001093 271.6870   3.5446 15.51200674  4431"}}, "geometry": {"type": "Point", "coordinates": [139.80801935634113, 23.68507821046903]}}, {"type": "Feature", "properties": {"norad_id": 66471, "name": "STARLINK-35569", "group": "last-30-days", "lat": 24.816497957447773, "lon": 141.47183747793844, "alt_km": 412.74882895848896, "timestamp": "2025-12-05T18:53:12.096244+00:00", "meta": {"OBJECT_NAME": "STARLINK-35569", "OBJECT_ID": "2025-262R", "EPOCH": "2025-12-05T06:00:02.000160", "MEAN_MOTION": 15.51204058, "ECCENTRICITY": 8.731e-05, "INCLINATION": 43, "RA_OF_ASC_NODE": 114.8624, "ARG_OF_PERICENTER": 281.1716, "MEAN_ANOMALY": 355.985, "EPHEMERIS_TYPE": 0, "CLASSIFICATION_TYPE": "U", "NORAD_CAT_ID": 66471, "ELEMENT_SET_NO": 999, "REV_AT_EPOCH": 443, "BSTAR": -0.0171164, "MEAN_MOTION_DOT": -0.00942416, "MEAN_MOTION_DDOT": 0}, "tle": {"line1": "1 66471U 25262R   25339.25002315 -.00942416  00000+0 -17116-1 0  9995", "line2": "2 66471  43.0000 114.8624 0000873 281.1716 355.9850 15.51204058  4430"}}, "geometry": {"type": "Point", "coordinates": [141.47183747793844, 24.816497957447773]}}, {"type": "Feature", "properties": {"norad_id": 66472, "name": "STARLINK-35567", "group": "last-30-days", "lat": 27.04769400374481, "lon": 144.93482868888663, "alt_km": 412.46822428337236, "timestamp": "2025-12-05T18:53:12.096256+00:00", "meta": {"OBJECT_NAME": "STARLINK-35567", "OBJECT_ID": "2025-262S", "EPOCH": "2025-12-05T06:00:02.000160", "MEAN_MOTION": 15.51204083, "ECCENTRICITY": 8.966e-05, "INCLINATION": 43.0001, "RA_OF_ASC_NODE": 114.8525, "ARG_OF_PERICENTER": 277.904, "MEAN_ANOMALY": 3.085, "EPHEMERIS_TYPE": 0, "CLASSIFICATION_TYPE": "U", "NORAD_CAT_ID": 66472, "ELEMENT_SET_NO": 999, "REV_AT_EPOCH": 443, "BSTAR": -0.017076198, "MEAN_MOTION_DOT": -0.00940386, "MEAN_MOTION_DDOT": 0}, "tle": {"line1": "1 66472U 25262S   25339.25002315 -.00940386  00000+0 -17076-1 0  9995", "line2": "2 66472  43.0001 114.8525 0000896 277.9040   3.0850 15.51204083  4439"}}, "geometry": {"type": "Point", "coordinates": [144.93482868888663, 27.04769400374481]}}, {"type": "Feature", "properties": {"norad_id": 66473, "name": "STARLINK-35568", "group": "last-30-days", "lat": 28.142682095495843, "lon": 146.73787830808388, "alt_km": 412.39780316896486, "timestamp": "2025-12-05T18:53:12.096266+00:00", "meta": {"OBJECT_NAME": "STARLINK-35568", "OBJECT_ID": "2025-262T", "EPOCH": "2025-12-05T06:00:02.000160", "MEAN_MOTION": 15.51201962, "ECCENTRICITY": 0.00012049, "INCLINATION": 42.9998, "RA_OF_ASC_NODE": 114.8477, "ARG_OF_PERICENTER": 267.2604, "MEAN_ANOMALY": 15.6399, "EPHEMERIS_TYPE": 0, "CLASSIFICATION_TYPE": "U", "NORAD_CAT_ID": 66473, "ELEMENT_SET_NO": 999, "REV_AT_EPOCH": 443, "BSTAR": -0.016589783, "MEAN_MOTION_DOT": -0.00915694, "MEAN_MOTION_DDOT": 0}, "tle": {"line1": "1 66473U 25262T   25339.25002315 -.00915694  00000+0 -16590-1 0  9990", "line2": "2 66473  42.9998 114.8477 0001204 267.2604  15.6399 15.51201962  4431"}}, "geometry": {"type": "Point", "coordinates": [146.73787830808388, 28.142682095495843]}}, {"type": "Feature", "properties": {"norad_id": 66474, "name": "STARLINK-35620", "group": "last-30-days", "lat": 29.189390636207513, "lon": 148.53456235813516, "alt_km": 412.160316929705, "timestamp": "2025-12-05T18:53:12.096276+00:00", "meta": {"OBJECT_NAME": "STARLINK-35620", "OBJECT_ID": "2025-262U", "EPOCH": "2025-12-05T06:00:02.000160", "MEAN_MOTION": 15.51209315, "ECCENTRICITY": 9.126e-05, "INCLINATION": 42.9999, "RA_OF_ASC_NODE": 114.8424, "ARG_OF_PERICENTER": 279.2354, "MEAN_ANOMALY": 5.5834, "EPHEMERIS_TYPE": 0, "CLASSIFICATION_TYPE": "U", "NORAD_CAT_ID": 66474, "ELEMENT_SET_NO": 999, "REV_AT_EPOCH": 443, "BSTAR": -0.017189328, "MEAN_MOTION_DOT": -0.00946279, "MEAN_MOTION_DDOT": 0}, "tle": {"line1": "1 66474U 25262U   25339.25002315 -.00946279  00000+0 -17189-1 0  9999", "line2": "2 66474  42.9999 114.8424 0000912 279.2354   5.5834 15.51209315  4437"}}, "geometry": {"type": "Point", "coordinates": [148.53456235813516, 29.189390636207513]}}, {"type": "Feature", "properties": {"norad_id": 66475, "name": "STARLINK-35538", "group": "last-30-days", "lat": 30.23538443653286, "lon": 150.4135760122699, "alt_km": 412.03621872236, "timestamp": "2025-12-05T18:53:12.096290+00:00", "meta": {"OBJECT_NAME": "STARLINK-35538", "OBJECT_ID": "2025-262V", "EPOCH": "2025-12-05T06:00:02.000160", "MEAN_MOTION": 15.51199881, "ECCENTRICITY": 0.00010825, "INCLINATION": 42.9998, "RA_OF_ASC_NODE": 114.8385, "ARG_OF_PERICENTER": 267.4486, "MEAN_ANOMALY": 19.2877, "EPHEMERIS_TYPE": 0, "CLASSIFICATION_TYPE": "U", "NORAD_CAT_ID": 66475, "ELEMENT_SET_NO": 999, "REV_AT_EPOCH": 443, "BSTAR": -0.016542675, "MEAN_MOTION_DOT": -0.00913209, "MEAN_MOTION_DDOT": 0}, "tle": {"line1": "1 66475U 25262V   25339.25002315 -.00913209  00000+0 -16543-1 0  9990", "line2": "2 66475  42.9998 114.8385 0001082 267.4486  19.2877 15.51199881  4432"}}, "geometry": {"type": "Point", "coordinates": [150.4135760122699, 30.23538443653286]}}, {"type": "Feature", "properties": {"norad_id": 66476, "name": "STARLINK-35372", "group": "last-30-days", "lat": 31.242542966321896, "lon": 152.30908492379407, "alt_km": 411.94955373007906, "timestamp": "2025-12-05T18:53:12.096302+00:00", "meta": {"OBJECT_NAME": "STARLINK-35372", "OBJECT_ID": "2025-262W", "EPOCH": "2025-12-05T06:00:02.000160", "MEAN_MOTION": 15.51175162, "ECCENTRICITY": 0.00010124, "INCLINATION": 42.9998, "RA_OF_ASC_NODE": 114.8331, "ARG_OF_PERICENTER": 260.4262, "MEAN_ANOMALY": 28.2614, "EPHEMERIS_TYPE": 0, "CLASSIFICATION_TYPE": "U", "NORAD_CAT_ID": 66476, "ELEMENT_SET_NO": 999, "REV_AT_EPOCH": 432, "BSTAR": -0.016293116, "MEAN_MOTION_DOT": -0.00887691, "MEAN_MOTION_DDOT": 0}, "tle": {"line1": "1 66476U 25262W   25339.25002315 -.00887691  00000+0 -16293-1 0  9998", "line2": "2 66476  42.9998 114.8331 0001012 260.4262  28.2614 15.51175162  4325"}}, "geometry": {"type": "Point", "coordinates": [152.30908492379407, 31.242542966321896]}}, {"type": "Feature", "properties": {"norad_id": 66477, "name": "STARLINK-35354", "group": "last-30-days", "lat": 33.15580316254631, "lon": 156.19362227390513, "alt_km": 411.6862951205849, "timestamp": "2025-12-05T18:53:12.096312+00:00", "meta": {"OBJECT_NAME": "STARLINK-35354", "OBJECT_ID": "2025-262X", "EPOCH": "2025-12-05T06:00:02.000160", "MEAN_MOTION": 15.51203458, "ECCENTRICITY": 9.194e-05, "INCLINATION": 42.9999, "RA_OF_ASC_NODE": 114.8231, "ARG_OF_PERICENTER": 268.4942, "MEAN_ANOMALY": 23.9962, "EPHEMERIS_TYPE": 0, "CLASSIFICATION_TYPE": "U", "NORAD_CAT_ID": 66477, "ELEMENT_SET_NO": 999, "REV_AT_EPOCH": 443, "BSTAR": -0.017110893, "MEAN_MOTION_DOT": -0.00942128, "MEAN_MOTION_DDOT": 0}, "tle": {"line1": "1 66477U 25262X   25339.25002315 -.00942128  00000+0 -17111-1 0  9996", "line2": "2 66477  42.9999 114.8231 0000919 268.4942  23.9962 15.51203458  4434"}}, "geometry": {"type": "Point", "coordinates": [156.19362227390513, 33.15580316254631]}}, {"type": "Feature", "properties": {"norad_id": 66478, "name": "STARLINK-35283", "group": "last-30-days", "lat": 34.0847979512631, "lon": 158.24064724224095, "alt_km": 411.5316544797488, "timestamp": "2025-12-05T18:53:12.096322+00:00", "meta": {"OBJECT_NAME": "STARLINK-35283", "OBJECT_ID": "2025-262Y", "EPOCH": "2025-12-05T06:00:02.000160", "MEAN_MOTION": 15.5120048, "ECCENTRICITY": 0.00010835, "INCLINATION": 43, "RA_OF_ASC_NODE": 114.8176, "ARG_OF_PERICENTER": 262.6656, "MEAN_ANOMALY": 31.7375, "EPHEMERIS_TYPE": 0, "CLASSIFICATION_TYPE": "U", "NORAD_CAT_ID": 66478, "ELEMENT_SET_NO": 999, "REV_AT_EPOCH": 443, "BSTAR": -0.016532304, "MEAN_MOTION_DOT": -0.009127, "MEAN_MOTION_DDOT": 0}, "tle": {"line1": "1 66478U 25262Y   25339.25002315 -.00912700  00000+0 -16532-1 0  9996", "line2": "2 66478  43.0000 114.8176 0001083 262.6656  31.7375 15.51200480  4436"}}, "geometry": {"type": "Point", "coordinates": [158.24064724224095, 34.0847979512631]}}, {"type": "Feature", "properties": {"norad_id": 66479, "name": "STARLINK-35581", "group": "last-30-days", "lat": 32.209370077578065, "lon": 154.22044930265662, "alt_km": 411.73696729974654, "timestamp": "2025-12-05T18:53:12.096332+00:00", "meta": {"OBJECT_NAME": "STARLINK-35581", "OBJECT_ID": "2025-262Z", "EPOCH": "2025-12-05T06:00:02.000160", "MEAN_MOTION": 15.51202451, "ECCENTRICITY": 9.418e-05, "INCLINATION": 42.9999, "RA_OF_ASC_NODE": 114.8274, "ARG_OF_PERICENTER": 277.9282, "MEAN_ANOMALY": 12.6422, "EPHEMERIS_TYPE": 0, "CLASSIFICATION_TYPE": "U", "NORAD_CAT_ID": 66479, "ELEMENT_SET_NO": 999, "REV_AT_EPOCH": 443, "BSTAR": -0.016991445, "MEAN_MOTION_DOT": -0.00936051, "MEAN_MOTION_DDOT": 0}, "tle": {"line1": "1 66479U 25262Z   25339.25002315 -.00936051  00000+0 -16991-1 0  9991", "line2": "2 66479  42.9999 114.8274 0000941 277.9282  12.6422 15.51202451  4438"}}, "geometry": {"type": "Point", "coordinates": [154.22044930265662, 32.209370077578065]}}]}